{
  "norad_id": 62427,
  "name": "STARLINK-32659",
  "history": [
    {
      "epoch": "2026-03-28T17:45:49.630464Z",
      "apogee_km": 483.6367790514423,
      "perigee_km": 482.06506393838663,
      "latitude_deg": -2.9749741695139008e-05,
      "longitude_deg": 114.1782060315164,
      "height_km": 482.6518671109443,
      "semi_major_axis_km": 6860.987921494914,
      "eccentricity": 0.00011454,
      "inclination_deg": 42.9999,
      "raan_deg": 206.7913,
      "arg_perigee_deg": 268.2151,
      "mean_anomaly_deg": 91.8569,
      "mean_motion_rev_day": 15.27646185
    },
    {
      "epoch": "2026-03-30T13:42:14.301504Z",
      "apogee_km": 483.507107819657,
      "perigee_km": 482.4038441495177,
      "latitude_deg": -3.876234393264472e-05,
      "longitude_deg": 162.92974215115933,
      "height_km": 482.2181366841388,
      "semi_major_axis_km": 6861.092475984587,
      "eccentricity": 8.04e-05,
      "inclination_deg": 42.9982,
      "raan_deg": 196.4502,
      "arg_perigee_deg": 338.4064,
      "mean_anomaly_deg": 21.6753,
      "mean_motion_rev_day": 15.27611266
    },
    {
      "epoch": "2026-03-31T13:14:34.757088Z",
      "apogee_km": 483.77967242427167,
      "perigee_km": 482.2057292708978,
      "latitude_deg": 5.5008561464378875e-05,
      "longitude_deg": 163.34039881142465,
      "height_km": 482.75210103952105,
      "semi_major_axis_km": 6861.129700847585,
      "eccentricity": 0.0001147,
      "inclination_deg": 43.0003,
      "raan_deg": 190.9127,
      "arg_perigee_deg": 271.2462,
      "mean_anomaly_deg": 88.8259,
      "mean_motion_rev_day": 15.27598834
    },
    {
      "epoch": "2026-04-01T12:46:55.214400Z",
      "apogee_km": 483.5281341574391,
      "perigee_km": 482.7239941263215,
      "latitude_deg": -3.1616795958134544e-05,
      "longitude_deg": 163.749955885036,
      "height_km": 483.1992763322318,
      "semi_major_axis_km": 6861.26306414188,
      "eccentricity": 5.86e-05,
      "inclination_deg": 43.0011,
      "raan_deg": 185.3743,
      "arg_perigee_deg": 222.3123,
      "mean_anomaly_deg": 137.7683,
      "mean_motion_rev_day": 15.27554296
    }
  ]
}